NORAD_CAT_ID,OBJECT_NAME,OBJECT_TYPE,EPOCH,MEAN_MOTION,ECCENTRICITY,INCLINATION,RA_OF_ASC_NODE,ARG_OF_PERICENTER,MEAN_ANOMALY,BSTAR,MEAN_MOTION_DOT,MEAN_MOTION_DDOT,TLE_LINE0,TLE_LINE1,TLE_LINE2,SEMIMAJOR_AXIS,PERIOD,APOGEE,PERIGEE,DECAYED
49150.0,STARLINK-3104,PAYLOAD,2022-11-20 19:25:09,14.98334814,0.0003239,69.9998,92.3893,253.2795,106.8009,6.5132e-05,6.84e-06,0.0,0 STARLINK-3104,1 49150U 21082W   22324.80913932  .00000684  00000-0  65132-4 0  9999,2 49150  69.9998  92.3893 0003239 253.2795 106.8009 14.98334814 66691,6950.178000000001,96.107,574.294,569.7919999999998,0.0
49150.0,STARLINK-3104,PAYLOAD,2022-11-21 13:02:38,14.98339798,0.0003233,69.9996,90.5377,252.6528,107.4277,-0.00013881,-1.749e-05,0.0,0 STARLINK-3104,1 49150U 21082W   22325.54349857 -.00001749  00000-0 -13881-3 0  9998,2 49150  69.9996  90.5377 0003233 252.6528 107.4277 14.98339798 66800,6950.163000000001,96.106,574.275,569.781,0.0
49150.0,STARLINK-3104,PAYLOAD,2022-11-21 16:14:55,14.98323709,0.0003235,69.9997,90.2013,253.8851,106.1952,4.7392e-05,4.72e-06,0.0,0 STARLINK-3104,1 49150U 21082W   22325.67702581  .00000472  00000-0  47392-4 0  9994,2 49150  69.9997  90.2013 0003235 253.8851 106.1952 14.98323709 66833,6950.212,96.107,574.326,569.8290000000002,0.0
49150.0,STARLINK-3104,PAYLOAD,2022-11-21 19:27:11,14.98325313,0.0003246,69.9997,89.8644,253.3779,106.7024,5.9363e-05,6.15e-06,0.0,0 STARLINK-3104,1 49150U 21082W   22325.81054482  .00000615  00000-0  59363-4 0  9990,2 49150  69.9997  89.8644 0003246 253.3779 106.7024 14.98325313 66843,6950.206999999999,96.107,574.328,569.816,0.0
49150.0,STARLINK-3104,PAYLOAD,2022-11-22 09:52:23,14.98334382,0.0003372,69.9996,88.35,255.7882,104.2902,5.112e-05,5.17e-06,0.0,0 STARLINK-3104,1 49150U 21082W   22326.41137887  .00000517  00000-0  51120-4 0  9992,2 49150  69.9996  88.3500 0003372 255.7882 104.2902 14.98334382 66943,6950.179,96.107,574.388,569.701,0.0
49150.0,STARLINK-3104,PAYLOAD,2022-11-22 14:40:46,14.98345236,0.0003168999999999,69.9997,87.8445,248.0992,111.983,-0.00010084,-1.297e-05,0.0,0 STARLINK-3104,1 49150U 21082W   22326.61165483 -.00001297  00000-0 -10084-3 0  9998,2 49150  69.9997  87.8445 0003169 248.0992 111.9830 14.98345236 66964,6950.146,96.106,574.2130000000002,569.808,0.0
49150.0,STARLINK-3104,PAYLOAD,2022-11-22 16:16:54,14.98345364,0.0003077,69.9999,87.6765,246.6367,113.4468,-6.212600000000001e-05,-8.35e-06,0.0,0 STARLINK-3104,1 49150U 21082W   22326.67841327 -.00000835  00000-0 -62126-4 0  9994,2 49150  69.9999  87.6765 0003077 246.6367 113.4468 14.98345364 66985,6950.145,96.106,574.149,569.872,0.0
49150.0,STARLINK-3104,PAYLOAD,2022-11-22 17:53:03,14.98332943,0.0002998,70.0002,87.5078,257.202,102.8804,3.3652e-05,3.09e-06,0.0,0 STARLINK-3104,1 49150U 21082W   22326.74517959  .00000309  00000-0  33652-4 0  9999,2 49150  70.0002  87.5078 0002998 257.2020 102.8804 14.98332943 66989,6950.184,96.107,574.132,569.965,0.0
49150.0,STARLINK-3104,PAYLOAD,2022-11-23 09:54:24,14.98324222,0.0003211,70.0002,85.824,250.6077,109.4735,4.3174e-05,4.22e-06,0.0,0 STARLINK-3104,1 49150U 21082W   22327.41278323  .00000422  00000-0  43174-4 0  9999,2 49150  70.0002  85.8240 0003211 250.6077 109.4735 14.98324222 67099,6950.2109999999975,96.107,574.307,569.844,0.0
49150.0,STARLINK-3104,PAYLOAD,2022-11-23 19:31:12,14.98329165,0.0003284,70.0003,84.8148,251.9226,108.1575,8.078399999999999e-05,8.71e-06,0.0,0 STARLINK-3104,1 49150U 21082W   22327.81333982  .00000871  00000-0  80784-4 0  9992,2 49150  70.0003  84.8148 0003284 251.9226 108.1575 14.98329165 67141,6950.195,96.107,574.3430000000002,569.778,0.0
49150.0,STARLINK-3104,PAYLOAD,2022-11-24 09:56:25,14.98310452,0.0003238,69.9989,83.2995,251.5643,108.5164,0.00048019,5.638e-05,0.0,0 STARLINK-3104,1 49150U 21082W   22328.41418301  .00005638  00000-0  48019-3 0  9998,2 49150  69.9989  83.2995 0003238 251.5643 108.5164 14.98310452 67240,6950.253000000002,96.108,574.369,569.868,0.0
49150.0,STARLINK-3104,PAYLOAD,2022-11-24 13:08:41,14.98330135,0.0002993,70.0015,82.9665,243.0922,116.9932,-9.6459e-05,-1.244e-05,0.0,0 STARLINK-3104,1 49150U 21082W   22328.54770421 -.00001244  00000-0 -96459-4 0  9999,2 49150  70.0015  82.9665 0002993 243.0922 116.9932 14.98330135 67264,6950.191999999999,96.107,574.138,569.977,0.0
49150.0,STARLINK-3104,PAYLOAD,2022-11-24 17:57:04,14.98387594,0.0003055,70.0002,82.4608,240.0359,120.0497,-0.0011328,-0.00013603,0.0,0 STARLINK-3104,1 49150U 21082W   22328.74796816 -.00013603  00000-0 -11328-2 0  9999,2 49150  70.0002  82.4608 0003055 240.0359 120.0497 14.98387594 67288,6950.015,96.103,574.003,569.757,0.0
49150.0,STARLINK-3104,PAYLOAD,2022-11-25 09:58:25,14.98385002,0.0003372,69.9997,80.7763,248.4968,111.5832,-0.00096704,-0.00011629,0.0,0 STARLINK-3104,1 49150U 21082W   22329.41557587 -.00011629  00000-0 -96704-3 0  9992,2 49150  69.9997  80.7763 0003372 248.4968 111.5832 14.98385002 67393,6950.023,96.103,574.231,569.544,0.0
49150.0,STARLINK-3104,PAYLOAD,2022-11-25 11:34:33,14.9838297,0.0003366,69.9998,80.6081,248.9729,111.107,-0.00092626,-0.00011143,0.0,0 STARLINK-3104,1 49150U 21082W   22329.48233395 -.00011143  00000-0 -92626-3 0  9997,2 49150  69.9998  80.6081 0003366 248.9729 111.1070 14.98382970 67390,6950.029,96.104,574.2330000000002,569.555,0.0
49150.0,STARLINK-3104,PAYLOAD,2022-11-25 17:59:06,14.9833511,0.0003447,70.0,79.9334,256.0478,104.0298,0.00010194,1.124e-05,0.0,0 STARLINK-3104,1 49150U 21082W   22329.74937589  .00001124  00000-0  10194-3 0  9998,2 49150  70.0000  79.9334 0003447 256.0478 104.0298 14.98335110 67443,6950.177,96.107,574.438,569.646,0.0
49150.0,STARLINK-3104,PAYLOAD,2022-11-26 13:12:42,14.98334425,0.0003558,69.9993,77.9128,259.5677,100.5082,3.2615e-05,2.96e-06,0.0,0 STARLINK-3104,1 49150U 21082W   22330.55049407  .00000296  00000-0  32615-4 0  9994,2 49150  69.9993  77.9128 0003558 259.5677 100.5082 14.98334425 67554,6950.179,96.107,574.5169999999998,569.571,0.0
49150.0,STARLINK-3104,PAYLOAD,2022-11-26 16:24:58,14.98333945,0.0003291,70.0004,77.5768,254.6748,105.4047,3.8313e-06,-4.7e-07,0.0,0 STARLINK-3104,1 49150U 21082W   22330.68401468 -.00000047  00000-0  38313-5 0  9994,2 49150  70.0004  77.5768 0003291 254.6748 105.4047 14.98333945 67578,6950.181,96.107,574.3330000000002,569.758,0.0
49150.0,STARLINK-3104,PAYLOAD,2022-11-27 00:25:38,14.98334158,0.0003348,70.0002,76.7353,254.757,105.3219,0.00011945,1.333e-05,0.0,0 STARLINK-3104,1 49150U 21082W   22331.01781202  .00001333  00000-0  11945-3 0  9997,2 49150  70.0002  76.7353 0003348 254.7570 105.3219 14.98334158 67638,6950.18,96.107,574.372,569.7180000000002,0.0
49150.0,STARLINK-3104,PAYLOAD,2022-11-27 13:14:43,14.98331651,0.0003373,70.0014,75.3902,255.3168,104.7618,1.8523e-05,1.28e-06,0.0,0 STARLINK-3104,1 49150U 21082W   22331.55189570  .00000128  00000-0  18523-4 0  9997,2 49150  70.0014  75.3902 0003373 255.3168 104.7618 14.98331651 67703,6950.188,96.107,574.3969999999998,569.7080000000002,0.0
49150.0,STARLINK-3104,PAYLOAD,2022-11-27 14:50:52,14.98328413,0.0003373,70.0003,75.2205,254.6463,105.4323,-3.9195e-05,-5.61e-06,0.0,0 STARLINK-3104,1 49150U 21082W   22331.61865842 -.00000561  00000-0 -39195-4 0  9998,2 49150  70.0003  75.2205 0003373 254.6463 105.4323 14.98328413 67721,6950.198,96.107,574.4069999999998,569.7180000000002,0.0
49150.0,STARLINK-3104,PAYLOAD,2022-11-27 16:27:00,14.9832919,0.0003378,70.0003,75.0521,254.8149,105.2636,-2.965e-05,-4.47e-06,0.0,0 STARLINK-3104,1 49150U 21082W   22331.68541807 -.00000447  00000-0 -29650-4 0  9995,2 49150  70.0003  75.0521 0003378 254.8149 105.2636 14.98329190 67726,6950.195,96.107,574.408,569.7130000000002,0.0
49150.0,STARLINK-3104,PAYLOAD,2022-11-28 13:16:44,14.98324854,0.000325,70.0007,72.8642,252.7318,107.3485,5.8712e-06,-2.3e-07,0.0,0 STARLINK-3104,1 49150U 21082W   22332.55329853 -.00000023  00000-0  58712-5 0  9998,2 49150  70.0007  72.8642 0003250 252.7318 107.3485 14.98324854 67854,6950.209,96.107,574.3330000000002,569.815,0.0
49150.0,STARLINK-3104,PAYLOAD,2022-11-29 00:29:41,14.98309542,0.0002853,70.0007,71.6857,263.2047,96.8787,0.00036936,4.315e-05,0.0,0 STARLINK-3104,1 49150U 21082W   22333.02062339  .00004315  00000-0  36936-3 0  9993,2 49150  70.0007  71.6857 0002853 263.2047  96.8787 14.98309542 67936,6950.255999999999,96.108,574.104,570.138,0.0
49150.0,STARLINK-3104,PAYLOAD,2022-11-29 13:18:45,14.98332725,0.0003338,70.0005,70.3394,255.769,104.3098,0.0001284999999999,1.441e-05,0.0,0 STARLINK-3104,1 49150U 21082W   22333.55469084  .00001441  00000-0  12850-3 0  9995,2 49150  70.0005  70.3394 0003338 255.7690 104.3098 14.98332725 68014,6950.184,96.107,574.369,569.729,0.0
49150.0,STARLINK-3104,PAYLOAD,2022-11-29 16:31:01,14.98327109,0.0003187,70.0008,70.0028,254.5633,105.5175,6.717399999999999e-05,7.09e-06,0.0,0 STARLINK-3104,1 49150U 21082W   22333.68821642  .00000709  00000-0  67174-4 0  9997,2 49150  70.0008  70.0028 0003187 254.5633 105.5175 14.98327109 68035,6950.2019999999975,96.107,574.2819999999998,569.852,0.0
49150.0,STARLINK-3104,PAYLOAD,2022-11-30 10:08:30,14.98326813,0.0003225,70.0007,68.15100000000001,256.9144,103.1655,8.946799999999999e-05,9.75e-06,0.0,0 STARLINK-3104,1 49150U 21082W   22334.42257685  .00000975  00000-0  89468-4 0  9995,2 49150  70.0007  68.1510 0003225 256.9144 103.1655 14.98326813 68133,6950.203,96.107,574.309,569.826,0.0
49150.0,STARLINK-3104,PAYLOAD,2022-11-30 16:33:03,14.98314427,0.0002906,70.0014,67.4776,250.0837,110.0009,0.00035547,4.149e-05,0.0,0 STARLINK-3104,1 49150U 21082W   22334.68962025  .00004149  00000-0  35547-3 0  9999,2 49150  70.0014  67.4776 0002906 250.0837 110.0009 14.98314427 68178,6950.241,96.108,574.126,570.086,0.0
49150.0,STARLINK-3104,PAYLOAD,2022-12-02 00:35:41,14.98400958,0.0003769,70.0003,64.111,251.6904,108.3845,-0.001123,-0.00013492,0.0,0 STARLINK-3104,1 49150U 21082W   22336.02478703 -.00013492  00000-0 -11230-2 0  9999,2 49150  70.0003  64.1110 0003769 251.6904 108.3845 14.98400958 68388,6949.973000000001,96.102,574.4580000000002,569.219,0.0
